BEIDOU-3 M2 (C20)       
1 43002U 17069B   26063.36523573 -.00000024  00000+0  00000+0 0  9998
2 43002  56.5998  66.5715 0009709 329.0395  30.9280  1.86230543 56644
BEIDOU-3 M7 (C27)       
1 43107U 18003A   26063.10725251 -.00000062  00000+0  00000+0 0  9994
2 43107  54.4212 305.9804 0004653  71.0897 289.0191  1.86232236 55399
BEIDOU-3 M8 (C28)       
1 43108U 18003B   26064.12671359 -.00000067  00000+0  00000+0 0  9992
2 43108  54.4128 305.9274 0003033 294.0648  65.9600  1.86230770 55420
BEIDOU-3 M4 (C22)       
1 43207U 18018A   26062.42109766 -.00000016  00000+0  00000+0 0  9991
2 43207  56.5592  66.6343 0006867 350.5022   9.5144  1.86230898 54773
BEIDOU-3 M3 (C21)       
1 43208U 18018B   26062.48754531 -.00000017  00000+0  00000+0 0  9995
2 43208  56.5588  66.6362 0009891 319.5859  40.3698  1.86231010 54777
BEIDOU-3 M9 (C29)       
1 43245U 18029A   26063.77860799 -.00000062  00000+0  00000+0 0  9995
2 43245  54.2878 303.6009 0000937  21.7845 338.2765  1.86228195 53959
BEIDOU-3 M10 (C30)      
1 43246U 18029B   26063.17653141 -.00000059  00000+0  00000+0 0  9997
2 43246  54.2860 303.6493 0005102  23.7928 336.2892  1.86228884 53922
BEIDOU-2 IGSO-7 (C16)   
1 43539U 18057A   26056.73984515 -.00000161  00000+0  00000+0 0  9993
2 43539  55.1859 164.0342 0099962 236.5988 133.5173  1.00284731 28015
BEIDOU-3 M5 (C23)       
1 43581U 18062A   26063.93761149  .00000001  00000+0  00000+0 0  9994
2 43581  54.0879 185.8478 0002141 309.8592  50.0878  1.86228710 51695
BEIDOU-3 M6 (C24)       
1 43582U 18062B   26062.72660318 -.00000014  00000+0  00000+0 0  9992
2 43582  54.0877 185.8781 0006255  44.1915 315.8167  1.86227526 51674
BEIDOU-3 M12 (C26)      
1 43602U 18067A   26061.59110086 -.00000026  00000+0  00000+0 0  9999
2 43602  54.1825 184.6546 0008588  39.8197 320.1981  1.86227627 51137
BEIDOU-3 M11 (C25)      
1 43603U 18067B   26063.87370402  .00000000  00000+0  00000+0 0  9994
2 43603  54.1800 184.5411 0004999  34.4488 325.5512  1.86227062 51207
BEIDOU-3 M13 (C32)      
1 43622U 18072A   26063.82956810 -.00000029  00000+0  00000+0 0  9991
2 43622  56.5333  66.1018 0008916 307.8246  52.1164  1.86230808 50718
BEIDOU-3 M14 (C33)      
1 43623U 18072B   26063.69502611 -.00000028  00000+0  00000+0 0  9992
2 43623  56.5350  66.1003 0006376 328.8150  31.1695  1.86230841 50709
BEIDOU-3 M16 (C35)      
1 43647U 18078A   26061.16715456 -.00000048  00000+0  00000+0 0  9999
2 43647  54.1863 303.7392 0008434  30.8134 329.2965  1.86232266 50162
BEIDOU-3 M15 (C34)      
1 43648U 18078B   26062.37035185 -.00000055  00000+0  00000+0 0  9996
2 43648  54.1808 303.6975 0005342  38.8897 321.2084  1.86232017 50200
BEIDOU-3 G1 (C59)       
1 43683U 18085A   26064.25437725 -.00000286  00000+0  00000+0 0  9994
2 43683   2.8129 100.3639 0001393  21.2833 272.9442  1.00268333 27011
